$$SOE
2460721.500000000, A.D. 2025-Feb-15 00:00:00.0000, -3.010775297784286E+08, -2.647603475907536E+08, 5.864824571941540E+06,
2460728.500000000, A.D. 2025-Feb-22 00:00:00.0000, -2.927662850317429E+08, -2.704645672604946E+08, 6.571927544712856E+06,
2460735.500000000, A.D. 2025-Mar-01 00:00:00.0000, -2.842306850075449E+08, -2.759615550220796E+08, 7.273992379053950E+06,
2460742.500000000, A.D. 2025-Mar-08 00:00:00.0000, -2.754732790332834E+08, -2.812432229161235E+08, 7.970378501797348E+06,
2460749.500000000, A.D. 2025-Mar-15 00:00:00.0000, -2.664968347460295E+08, -2.863012972613319E+08, 8.660424450304464E+06,
2460756.500000000, A.D. 2025-Mar-22 00:00:00.0000, -2.573043576476542E+08, -2.911273134962015E+08, 9.343447119766161E+06,
2460763.500000000, A.D. 2025-Mar-29 00:00:00.0000, -2.478991106009499E+08, -2.957126136707481E+08, 1.001874067600538E+07,
2460770.500000000, A.D. 2025-Apr-05 00:00:00.0000, -2.382846330321389E+08, -3.000483435434036E+08, 1.068557536300462E+07,
2460777.500000000, A.D. 2025-Apr-12 00:00:00.0000, -2.284647618596081E+08, -3.041254492841846E+08, 1.134319639388700E+07,
2460784.500000000, A.D. 2025-Apr-19 00:00:00.0000, -2.184436544320580E+08, -3.079346747843518E+08, 1.199082287500344E+07,
2460791.500000000, A.D. 2025-Apr-26 00:00:00.0000, -2.082258133013030E+08, -3.114665599106287E+08, 1.262764672705954E+07,
2460798.500000000, A.D. 2025-May-03 00:00:00.0000, -1.978161128123071E+08, -3.147114398389810E+08, 1.325283160094155E+07,
2460805.500000000, A.D. 2025-May-10 00:00:00.0000, -1.872198275759066E+08, -3.176594456363143E+08, 1.386551179414983E+07,
2460812.500000000, A.D. 2025-May-17 00:00:00.0000, -1.764426628783354E+08, -3.203005063356201E+08, 1.446479117052041E+07,
2460819.500000000, A.D. 2025-May-24 00:00:00.0000, -1.654907869415407E+08, -3.226243527947603E+08, 1.504974207432739E+07,
2460826.500000000, A.D. 2025-May-31 00:00:00.0000, -1.543708647002821E+08, -3.246205232956055E+08, 1.561940424005063E+07,
2460833.500000000, A.D. 2025-Jun-07 00:00:00.0000, -1.430900935713207E+08, -3.262783699780517E+08, 1.617278385019526E+07,
2460840.500000000, A.D. 2025-Jun-14 00:00:00.0000, -1.316562436362497E+08, -3.275870671091756E+08, 1.670885292361388E+07,
2460847.500000000, A.D. 2025-Jun-21 00:00:00.0000, -1.200777010549598E+08, -3.285356248341023E+08, 1.722654867876147E+07,
2460854.500000000, A.D. 2025-Jun-28 00:00:00.0000, -1.083635115895962E+08, -3.291129070674311E+08, 1.772477275697783E+07,
2460861.500000000, A.D. 2025-Jul-05 00:00:00.0000, -9.652342573198989E+07, -3.293076518398618E+08, 1.820239065393099E+07,
2460868.500000000, A.D. 2025-Jul-12 00:00:00.0000, -8.456794655972452E+07, -3.291084954239378E+08, 1.865823144049628E+07,
2460875.500000000, A.D. 2025-Jul-19 00:00:00.0000, -7.250838001211141E+07, -3.285040013816832E+08, 1.909108775188453E+07,
2460882.500000000, A.D. 2025-Jul-26 00:00:00.0000, -6.035688719013847E+07, -3.274826952082969E+08, 1.949971606993672E+07,
2460889.500000000, A.D. 2025-Aug-02 00:00:00.0000, -4.812653834671027E+07, -3.260331052190109E+08, 1.988283734928221E+07,
2460896.500000000, A.D. 2025-Aug-09 00:00:00.0000, -3.583136817805196E+07, -3.241438104138513E+08, 2.023913804621342E+07,
2460903.500000000, A.D. 2025-Aug-16 00:00:00.0000, -2.348643186006839E+07, -3.218034961497407E+08, 2.056727160832630E+07,
2460910.500000000, A.D. 2025-Aug-23 00:00:00.0000, -1.110786092392488E+07, -3.190010184055404E+08, 2.086586047768499E+07,
2460917.500000000, A.D. 2025-Aug-30 00:00:00.0000, 1.287082128157927E+06, -3.157254767512263E+08, 2.113349872158505E+07,
2460924.500000000, A.D. 2025-Sep-06 00:00:00.0000, 1.367994999945519E+07, -3.119662958516203E+08, 2.136875559587067E+07,
2460931.500000000, A.D. 2025-Sep-13 00:00:00.0000, 2.605105705345563E+07, -3.077133187992997E+08, 2.157018009058329E+07,
2460938.500000000, A.D. 2025-Sep-20 00:00:00.0000, 3.837943070768667E+07, -3.029569146874116E+08, 2.173630612854894E+07,
2460945.500000000, A.D. 2025-Sep-27 00:00:00.0000, 5.064277046424825E+07, -2.976880979958209E+08, 2.186565868429618E+07,
2460952.500000000, A.D. 2025-Oct-04 00:00:00.0000, 6.281741446897546E+07, -2.918986598020906E+08, 2.195676116449264E+07,
2460959.500000000, A.D. 2025-Oct-11 00:00:00.0000, 7.487831541891736E+07, -2.855813121162474E+08, 2.200814411730900E+07,
2460966.500000000, A.D. 2025-Oct-18 00:00:00.0000, 8.679902858486234E+07, -2.787298457066746E+08, 2.201835532625510E+07,
2460973.500000000, A.D. 2025-Oct-25 00:00:00.0000, 9.855171485239996E+07, -2.713393011553134E+08, 2.198597136854674E+07,
2460980.500000000, A.D. 2025-Nov-01 00:00:00.0000, 1.101071618411989E+08, -2.634061524394243E+08, 2.190961070779043E+07,
2460987.500000000, A.D. 2025-Nov-08 00:00:00.0000, 1.214348263708636E+08, -2.549285018490423E+08, 2.178794835908395E+07,
2460994.500000000, A.D. 2025-Nov-15 00:00:00.0000, 1.325029017987957E+08, -2.459062844450809E+08, 2.161973211608373E+07,
2461001.500000000, A.D. 2025-Nov-22 00:00:00.0000, 1.432784140460138E+08, -2.363414792573577E+08, 2.140380028357972E+07,
2461008.500000000, A.D. 2025-Nov-29 00:00:00.0000, 1.537273494628275E+08, -2.262383226851383E+08, 2.113910092607069E+07,
2461015.500000000, A.D. 2025-Dec-06 00:00:00.0000, 1.638148152770972E+08, -2.156035199352993E+08, 2.082471266132043E+07,
2461022.500000000, A.D. 2025-Dec-13 00:00:00.0000, 1.735052355820591E+08, -2.044464526288242E+08, 2.045986643139425E+07,
2461029.500000000, A.D. 2025-Dec-20 00:00:00.0000, 1.827625881399237E+08, -1.927793753908476E+08, 2.004396767182482E+07,
2461036.500000000, A.D. 2025-Dec-27 00:00:00.0000, 1.915506816953268E+08, -1.806175918268985E+08, 1.957661875169787E+07,
2461043.500000000, A.D. 2026-Jan-03 00:00:00.0000, 1.998334718042534E+08, -1.679796027928324E+08, 1.905764123319549E+07,
2461050.500000000, A.D. 2026-Jan-10 00:00:00.0000, 2.075754131780735E+08, -1.548872194587998E+08, 1.848709725711622E+07,
2461057.500000000, A.D. 2026-Jan-17 00:00:00.0000, 2.147418448569716E+08, -1.413656329389730E+08, 1.786530931810210E+07,
2461064.500000000, A.D. 2026-Jan-24 00:00:00.0000, 2.212994023984470E+08, -1.274434324241998E+08, 1.719287765930700E+07,
2461071.500000000, A.D. 2026-Jan-31 00:00:00.0000, 2.272164491702305E+08, -1.131525645632285E+08, 1.647069449094877E+07,
2461078.500000000, A.D. 2026-Feb-07 00:00:00.0000, 2.324635168894235E+08, -9.852822821130845E+07, 1.569995423622781E+07,
2461085.500000000, A.D. 2026-Feb-14 00:00:00.0000, 2.370137439694614E+08, -8.360870048373415E+07, 1.488215903993661E+07,
2461092.500000000, A.D. 2026-Feb-21 00:00:00.0000, 2.408432990230529E+08, -6.843509181383388E+07, 1.401911891242683E+07,
2461099.500000000, A.D. 2026-Feb-28 00:00:00.0000, 2.439317746654401E+08, -5.305102993578847E+07, 1.311294623132549E+07,
2461106.500000000, A.D. 2026-Mar-07 00:00:00.0000, 2.462625357605040E+08, -3.750227891675325E+07, 1.216604437401317E+07,
2461113.500000000, A.D. 2026-Mar-14 00:00:00.0000, 2.478230118270895E+08, -2.183630291108662E+07, 1.118109002275960E+07,
2461120.500000000, A.D. 2026-Mar-21 00:00:00.0000, 2.486049238918745E+08, -6.101782071629384E+06, 1.016100946287722E+07,
2461127.500000000, A.D. 2026-Mar-28 00:00:00.0000, 2.486044346209483E+08, 9.651907503475685E+06, 9.108949647246221E+06,
2461134.500000000, A.D. 2026-Apr-04 00:00:00.0000, 2.478222149563512E+08, 2.537523398881084E+07, 8.028244749755131E+06,
2461141.500000000, A.D. 2026-Apr-11 00:00:00.0000, 2.462634248091497E+08, 4.101905390521022E+07, 6.922379108127082E+06,
2461148.500000000, A.D. 2026-Apr-18 00:00:00.0000, 2.439376088990613E+08, 5.653514388580982E+07, 5.794947654342510E+06,
2461155.500000000, A.D. 2026-Apr-25 00:00:00.0000, 2.408585122960975E+08, 7.187670471546054E+07, 4.649615036528699E+06,
2461162.500000000, A.D. 2026-May-02 00:00:00.0000, 2.370438234428314E+08, 8.699882376593152E+07, 3.490074656054694E+06,
2461169.500000000, A.D. 2026-May-09 00:00:00.0000, 2.325148552038162E+08, 1.018588842157210E+08, 2.320008783557653E+06,
2461176.500000000, A.D. 2026-May-16 00:00:00.0000, 2.272961766881345E+08, 1.164169124559411E+08, 1.143050798436105E+06,
2461183.500000000, A.D. 2026-May-23 00:00:00.0000, 2.214152093760025E+08, 1.306358590412257E+08, -3.724946571508050E+04,
2461190.500000000, A.D. 2026-May-30 00:00:00.0000, 2.149017992408151E+08, 1.444818109812415E+08, -1.217456341217332E+06,
2461197.500000000, A.D. 2026-Jun-06 00:00:00.0000, 2.077877779204730E+08, 1.579241325312136E+08, -2.394274649457440E+06,
2461204.500000000, A.D. 2026-Jun-13 00:00:00.0000, 2.001065288971334E+08, 1.709355376558502E+08, -3.564571767588004E+06,
2461211.500000000, A.D. 2026-Jun-20 00:00:00.0000, 1.918925688882453E+08, 1.834921021652448E+08, -4.725395074645028E+06,
2461218.500000000, A.D. 2026-Jun-27 00:00:00.0000, 1.831811516007620E+08, 1.955732218272645E+08, -5.873984744611211E+06,
2461225.500000000, A.D. 2026-Jul-04 00:00:00.0000, 1.740079007054740E+08, 2.071615233350835E+08, -7.007782191503018E+06,
2461232.500000000, A.D. 2026-Jul-11 00:00:00.0000, 1.644084771453469E+08, 2.182427361430405E+08, -8.124434554056615E+06,
2461239.500000000, A.D. 2026-Jul-18 00:00:00.0000, 1.544182838527096E+08, 2.288055333848177E+08, -9.221795656587794E+06,
2461246.500000000, A.D. 2026-Jul-25 00:00:00.0000, 1.440722092081717E+08, 2.388413497437664E+08, -1.029792392237537E+07,
2461253.500000000, A.D. 2026-Aug-01 00:00:00.0000, 1.334044091789512E+08, 2.483441835003482E+08, -1.135107773807304E+07,
2461260.500000000, A.D. 2026-Aug-08 00:00:00.0000, 1.224481270992108E+08, 2.573103892172969E+08, -1.237970877463178E+07,
2461267.500000000, A.D. 2026-Aug-15 00:00:00.0000, 1.112355493914786E+08, 2.657384671317494E+08, -1.338245372439636E+07,
2461274.500000000, A.D. 2026-Aug-22 00:00:00.0000, 9.979769374994265E+07, 2.736288551724544E+08, -1.435812470680347E+07,
2461281.500000000, A.D. 2026-Aug-29 00:00:00.0000, 8.816432438629979E+07, 2.809837260060846E+08, -1.530569861849511E+07,
2461288.500000000, A.D. 2026-Sep-05 00:00:00.0000, 7.636389316059721E+07, 2.878067891979906E+08, -1.622430618080829E+07,
$$EOE